GLOBALSTAR M084 [+]     
1 38040U 11080A   24054.28493035 -.00000079  00000+0  13861-3 0  9992
2 38040  52.0010  69.4706 0000638  93.8529 279.3788 12.62271279562343
GLOBALSTAR M080 [+]     
1 38041U 11080B   24054.19314774 -.00000085  00000+0  10592-3 0  9990
2 38041  52.0061  71.1890 0000678  76.8356 358.4349 12.62269318562317
GLOBALSTAR M082 [+]     
1 38042U 11080C   24054.12830047 -.00000105  00000+0 -54611-5 0  9996
2 38042  52.0097  26.7808 0000431 183.5103 257.3622 12.62266082563042
GLOBALSTAR M092 [+]     
1 38043U 11080D   24054.16752773 -.00000087  00000+0  96158-4 0  9999
2 38043  52.0078 117.0160 0000825 117.5070 260.5633 12.62276693561544
GLOBALSTAR M090 [+]     
1 38044U 11080E   24054.32741510 -.00000102  00000+0  10334-4 0  9995
2 38044  51.9909  20.6006 0000169 122.0875  24.9947 12.62266316563058
GLOBALSTAR M086 [+]     
1 38045U 11080F   24054.10176514 -.00000099  00000+0  25229-4 0  9992
2 38045  51.9921  21.8026 0000940 355.9257  84.5831 12.62267457563035
GLOBALSTAR M097 [+]     
1 39072U 13005A   24053.87283175 -.00000067  00000+0  20564-3 0  9998
2 39072  52.0048 296.5619 0000522  59.5833 300.5085 12.62260914510158
GLOBALSTAR M093 [+]     
1 39073U 13005B   24054.08385125 -.00000066  00000+0  21183-3 0  9998
2 39073  51.9808 289.9904 0000469  50.5757 309.5151 12.62261423510250
